[{"norad_id":"55281","company":"STARLINK","tle_line2":"2 55281  69.9988 313.1302 0002601 269.1267  90.9594 14.98334204156812","launch_date":"2023-01-19","type":"LEO","tle_line1":"1 55281U 23010N   25327.12250778  .00000735  00000+0  69416-4 0  9992","satellite_name":"STARLINK-5298"},{"norad_id":"55282","company":"STARLINK","tle_line2":"2 55282  70.0017 313.0438 0002710 256.1445 103.9412 14.98336867156814","launch_date":"2023-01-19","type":"LEO","tle_line1":"1 55282U 23010P   25327.09763058  .00000562  00000+0  54897-4 0  9994","satellite_name":"STARLINK-5330"},{"norad_id":"55283","company":"STARLINK","tle_line2":"2 55283  69.9989 313.1166 0002822 268.9545  91.1291 14.98334377156812","launch_date":"2023-01-19","type":"LEO","tle_line1":"1 55283U 23010Q   25327.11833597 -.00000306  00000+0 -17826-4 0  9993","satellite_name":"STARLINK-5317"},{"norad_id":"55284","company":"STARLINK","tle_line2":"2 55284  69.9985 313.0389 0002892 274.3656  85.7173 14.98332439156800","launch_date":"2023-01-19","type":"LEO","tle_line1":"1 55284U 23010R   25327.09746532  .00000650  00000+0  62287-4 0  9994","satellite_name":"STARLINK-5337"},{"norad_id":"55285","company":"STARLINK","tle_line2":"2 55285  69.9992 273.1963 0002834 265.1126  94.9710 14.98310535158678","launch_date":"2023-01-19","type":"LEO","tle_line1":"1 55285U 23010S   25327.07214419  .00003488  00000+0  30013-3 0  9990","satellite_name":"STARLINK-5332"},{"norad_id":"55286","company":"STARLINK","tle_line2":"2 55286  69.9984 293.2296 0002980 270.0820  89.9998 14.98332068157306","launch_date":"2023-01-19","type":"LEO","tle_line1":"1 55286U 23010T   25327.11394227 -.00000589  00000+0 -41539-4 0  9999","satellite_name":"STARLINK-5338"},{"norad_id":"55287","company":"STARLINK","tle_line2":"2 55287  69.9992 273.2954 0002680 267.5184  92.5668 14.98326651157794","launch_date":"2023-01-19","type":"LEO","tle_line1":"1 55287U 23010U   25327.12205956 -.00000119  00000+0 -21440-5 0  9990","satellite_name":"STARLINK-5341"},{"norad_id":"55288","company":"STARLINK","tle_line2":"2 55288  69.9991 293.1866 0002846 274.6035  85.4798 14.98347894157309","launch_date":"2023-01-19","type":"LEO","tle_line1":"1 55288U 23010V   25327.10156795  .00001870  00000+0  16442-3 0  9992","satellite_name":"STARLINK-5311"},{"norad_id":"55289","company":"STARLINK","tle_line2":"2 55289  69.9988 293.2445 0002923 271.5300  88.5525 14.98327115157303","launch_date":"2023-01-19","type":"LEO","tle_line1":"1 55289U 23010W   25327.11811454 -.00000755  00000+0 -55454-4 0  9994","satellite_name":"STARLINK-5320"},{"norad_id":"55290","company":"STARLINK","tle_line2":"2 55290  69.9982 293.2146 0003365 270.4486  89.6288 14.98334321157306","launch_date":"2023-01-19","type":"LEO","tle_line1":"1 55290U 23010X   25327.10975773  .00000503  00000+0  49920-4 0  9990","satellite_name":"STARLINK-5266"},{"norad_id":"55291","company":"STARLINK","tle_line2":"2 55291  69.9993 293.2736 0002881 257.3732 102.7105 14.98337196157302","launch_date":"2023-01-19","type":"LEO","tle_line1":"1 55291U 23010Y   25327.12646657 -.00000601  00000+0 -42612-4 0  9991","satellite_name":"STARLINK-5327"},{"norad_id":"55292","company":"STARLINK","tle_line2":"2 55292  69.9990 293.1714 0002916 262.4759  97.6068 14.98333237157302","launch_date":"2023-01-19","type":"LEO","tle_line1":"1 55292U 23010Z   25327.09725851  .00001241  00000+0  11176-3 0  9991","satellite_name":"STARLINK-5325"},{"norad_id":"55293","company":"STARLINK","tle_line2":"2 55293  69.9987 293.1848 0002758 270.2043  89.8800 14.98341154157308","launch_date":"2023-01-19","type":"LEO","tle_line1":"1 55293U 23010AA  25327.10140575  .00001001  00000+0  91615-4 0  9999","satellite_name":"STARLINK-5287"},{"norad_id":"55294","company":"STARLINK","tle_line2":"2 55294  70.0009 313.0682 0002893 273.2689  86.8139 14.98317408156816","launch_date":"2023-01-19","type":"LEO","tle_line1":"1 55294U 23010AB  25327.10583184 -.00001957  00000+0 -15632-3 0  9993","satellite_name":"STARLINK-5286"},{"norad_id":"55295","company":"STARLINK","tle_line2":"2 55295  69.9989 313.3859 0003002 268.7259  91.3557 14.98320313156819","launch_date":"2023-01-19","type":"LEO","tle_line1":"1 55295U 23010AC  25327.08079486  .00001418  00000+0  12666-3 0  9990","satellite_name":"STARLINK-5293"},{"norad_id":"55296","company":"STARLINK","tle_line2":"2 55296  69.9983 293.1245 0002952 272.7157  87.3664 14.98326428158182","launch_date":"2023-01-19","type":"LEO","tle_line1":"1 55296U 23010AD  25327.08472112  .00000618  00000+0  59610-4 0  9996","satellite_name":"STARLINK-5285"},{"norad_id":"55297","company":"STARLINK","tle_line2":"2 55297  69.9988 293.1569 0002939 266.9293  93.1529 14.98325202157305","launch_date":"2023-01-19","type":"LEO","tle_line1":"1 55297U 23010AE  25327.09307140  .00000114  00000+0  17382-4 0  9997","satellite_name":"STARLINK-5284"}]