[{"OBJECT_NAME":"STARLINK-5298","OBJECT_ID":"2023-010N","EPOCH":"2025-11-23T02:56:24.672192","MEAN_MOTION":14.98334204,"ECCENTRICITY":0.0002601,"INCLINATION":69.9988,"RA_OF_ASC_NODE":313.1302,"ARG_OF_PERICENTER":269.1267,"MEAN_ANOMALY":90.9594,"EPHEMERIS_TYPE":0,"CLASSIFICATION_TYPE":"U","NORAD_CAT_ID":55281,"ELEMENT_SET_NO":999,"REV_AT_EPOCH":15681,"BSTAR":6.9416e-5,"MEAN_MOTION_DOT":7.35e-6,"MEAN_MOTION_DDOT":0},{"OBJECT_NAME":"STARLINK-5330","OBJECT_ID":"2023-010P","EPOCH":"2025-11-23T02:20:35.282112","MEAN_MOTION":14.98336867,"ECCENTRICITY":0.000271,"INCLINATION":70.0017,"RA_OF_ASC_NODE":313.0438,"ARG_OF_PERICENTER":256.1445,"MEAN_ANOMALY":103.9412,"EPHEMERIS_TYPE":0,"CLASSIFICATION_TYPE":"U","NORAD_CAT_ID":55282,"ELEMENT_SET_NO":999,"REV_AT_EPOCH":15681,"BSTAR":5.4897e-5,"MEAN_MOTION_DOT":5.62e-6,"MEAN_MOTION_DDOT":0},{"OBJECT_NAME":"STARLINK-5317","OBJECT_ID":"2023-010Q","EPOCH":"2025-11-23T02:50:24.227808","MEAN_MOTION":14.98334377,"ECCENTRICITY":0.0002822,"INCLINATION":69.9989,"RA_OF_ASC_NODE":313.1166,"ARG_OF_PERICENTER":268.9545,"MEAN_ANOMALY":91.1291,"EPHEMERIS_TYPE":0,"CLASSIFICATION_TYPE":"U","NORAD_CAT_ID":55283,"ELEMENT_SET_NO":999,"REV_AT_EPOCH":15681,"BSTAR":-1.7826e-5,"MEAN_MOTION_DOT":-3.06e-6,"MEAN_MOTION_DDOT":0},{"OBJECT_NAME":"STARLINK-5337","OBJECT_ID":"2023-010R","EPOCH":"2025-11-23T02:20:21.003648","MEAN_MOTION":14.98332439,"ECCENTRICITY":0.0002892,"INCLINATION":69.9985,"RA_OF_ASC_NODE":313.0389,"ARG_OF_PERICENTER":274.3656,"MEAN_ANOMALY":85.7173,"EPHEMERIS_TYPE":0,"CLASSIFICATION_TYPE":"U","NORAD_CAT_ID":55284,"ELEMENT_SET_NO":999,"REV_AT_EPOCH":15680,"BSTAR":6.2287e-5,"MEAN_MOTION_DOT":6.5e-6,"MEAN_MOTION_DDOT":0},{"OBJECT_NAME":"STARLINK-5332","OBJECT_ID":"2023-010S","EPOCH":"2025-11-23T01:43:53.258016","MEAN_MOTION":14.98310535,"ECCENTRICITY":0.0002834,"INCLINATION":69.9992,"RA_OF_ASC_NODE":273.1963,"ARG_OF_PERICENTER":265.1126,"MEAN_ANOMALY":94.971,"EPHEMERIS_TYPE":0,"CLASSIFICATION_TYPE":"U","NORAD_CAT_ID":55285,"ELEMENT_SET_NO":999,"REV_AT_EPOCH":15867,"BSTAR":0.00030013,"MEAN_MOTION_DOT":3.488e-5,"MEAN_MOTION_DDOT":0},{"OBJECT_NAME":"STARLINK-5338","OBJECT_ID":"2023-010T","EPOCH":"2025-11-23T02:44:04.612128","MEAN_MOTION":14.98332068,"ECCENTRICITY":0.000298,"INCLINATION":69.9984,"RA_OF_ASC_NODE":293.2296,"ARG_OF_PERICENTER":270.082,"MEAN_ANOMALY":89.9998,"EPHEMERIS_TYPE":0,"CLASSIFICATION_TYPE":"U","NORAD_CAT_ID":55286,"ELEMENT_SET_NO":999,"REV_AT_EPOCH":15730,"BSTAR":-4.1539e-5,"MEAN_MOTION_DOT":-5.89e-6,"MEAN_MOTION_DDOT":0},{"OBJECT_NAME":"STARLINK-5341","OBJECT_ID":"2023-010U","EPOCH":"2025-11-23T02:55:45.945984","MEAN_MOTION":14.98326651,"ECCENTRICITY":0.000268,"INCLINATION":69.9992,"RA_OF_ASC_NODE":273.2954,"ARG_OF_PERICENTER":267.5184,"MEAN_ANOMALY":92.5668,"EPHEMERIS_TYPE":0,"CLASSIFICATION_TYPE":"U","NORAD_CAT_ID":55287,"ELEMENT_SET_NO":999,"REV_AT_EPOCH":15779,"BSTAR":-2.144e-6,"MEAN_MOTION_DOT":-1.19e-6,"MEAN_MOTION_DDOT":0},{"OBJECT_NAME":"STARLINK-5311","OBJECT_ID":"2023-010V","EPOCH":"2025-11-23T02:26:15.470880","MEAN_MOTION":14.98347894,"ECCENTRICITY":0.0002846,"INCLINATION":69.9991,"RA_OF_ASC_NODE":293.1866,"ARG_OF_PERICENTER":274.6035,"MEAN_ANOMALY":85.4798,"EPHEMERIS_TYPE":0,"CLASSIFICATION_TYPE":"U","NORAD_CAT_ID":55288,"ELEMENT_SET_NO":999,"REV_AT_EPOCH":15730,"BSTAR":0.00016442,"MEAN_MOTION_DOT":1.87e-5,"MEAN_MOTION_DDOT":0},{"OBJECT_NAME":"STARLINK-5320","OBJECT_ID":"2023-010W","EPOCH":"2025-11-23T02:50:05.096256","MEAN_MOTION":14.98327115,"ECCENTRICITY":0.0002923,"INCLINATION":69.9988,"RA_OF_ASC_NODE":293.2445,"ARG_OF_PERICENTER":271.53,"MEAN_ANOMALY":88.5525,"EPHEMERIS_TYPE":0,"CLASSIFICATION_TYPE":"U","NORAD_CAT_ID":55289,"ELEMENT_SET_NO":999,"REV_AT_EPOCH":15730,"BSTAR":-5.5454e-5,"MEAN_MOTION_DOT":-7.55e-6,"MEAN_MOTION_DDOT":0},{"OBJECT_NAME":"STARLINK-5266","OBJECT_ID":"2023-010X","EPOCH":"2025-11-23T02:38:03.067872","MEAN_MOTION":14.98334321,"ECCENTRICITY":0.0003365,"INCLINATION":69.9982,"RA_OF_ASC_NODE":293.2146,"ARG_OF_PERICENTER":270.4486,"MEAN_ANOMALY":89.6288,"EPHEMERIS_TYPE":0,"CLASSIFICATION_TYPE":"U","NORAD_CAT_ID":55290,"ELEMENT_SET_NO":999,"REV_AT_EPOCH":15730,"BSTAR":4.992e-5,"MEAN_MOTION_DOT":5.03e-6,"MEAN_MOTION_DDOT":0},{"OBJECT_NAME":"STARLINK-5327","OBJECT_ID":"2023-010Y","EPOCH":"2025-11-23T03:02:06.711648","MEAN_MOTION":14.98337196,"ECCENTRICITY":0.0002881,"INCLINATION":69.9993,"RA_OF_ASC_NODE":293.2736,"ARG_OF_PERICENTER":257.3732,"MEAN_ANOMALY":102.7105,"EPHEMERIS_TYPE":0,"CLASSIFICATION_TYPE":"U","NORAD_CAT_ID":55291,"ELEMENT_SET_NO":999,"REV_AT_EPOCH":15730,"BSTAR":-4.2612e-5,"MEAN_MOTION_DOT":-6.01e-6,"MEAN_MOTION_DDOT":0},{"OBJECT_NAME":"STARLINK-5325","OBJECT_ID":"2023-010Z","EPOCH":"2025-11-23T02:20:03.135264","MEAN_MOTION":14.98333237,"ECCENTRICITY":0.0002916,"INCLINATION":69.999,"RA_OF_ASC_NODE":293.1714,"ARG_OF_PERICENTER":262.4759,"MEAN_ANOMALY":97.6068,"EPHEMERIS_TYPE":0,"CLASSIFICATION_TYPE":"U","NORAD_CAT_ID":55292,"ELEMENT_SET_NO":999,"REV_AT_EPOCH":15730,"BSTAR":0.00011176,"MEAN_MOTION_DOT":1.241e-5,"MEAN_MOTION_DDOT":0},{"OBJECT_NAME":"STARLINK-5287","OBJECT_ID":"2023-010AA","EPOCH":"2025-11-23T02:26:01.456800","MEAN_MOTION":14.98341154,"ECCENTRICITY":0.0002758,"INCLINATION":69.9987,"RA_OF_ASC_NODE":293.1848,"ARG_OF_PERICENTER":270.2043,"MEAN_ANOMALY":89.88,"EPHEMERIS_TYPE":0,"CLASSIFICATION_TYPE":"U","NORAD_CAT_ID":55293,"ELEMENT_SET_NO":999,"REV_AT_EPOCH":15730,"BSTAR":9.1615e-5,"MEAN_MOTION_DOT":1.001e-5,"MEAN_MOTION_DDOT":0},{"OBJECT_NAME":"STARLINK-5286","OBJECT_ID":"2023-010AB","EPOCH":"2025-11-23T02:32:23.870976","MEAN_MOTION":14.98317408,"ECCENTRICITY":0.0002893,"INCLINATION":70.0009,"RA_OF_ASC_NODE":313.0682,"ARG_OF_PERICENTER":273.2689,"MEAN_ANOMALY":86.8139,"EPHEMERIS_TYPE":0,"CLASSIFICATION_TYPE":"U","NORAD_CAT_ID":55294,"ELEMENT_SET_NO":999,"REV_AT_EPOCH":15681,"BSTAR":-0.00015632,"MEAN_MOTION_DOT":-1.957e-5,"MEAN_MOTION_DDOT":0},{"OBJECT_NAME":"STARLINK-5293","OBJECT_ID":"2023-010AC","EPOCH":"2025-11-23T01:56:20.675904","MEAN_MOTION":14.98320313,"ECCENTRICITY":0.0003002,"INCLINATION":69.9989,"RA_OF_ASC_NODE":313.3859,"ARG_OF_PERICENTER":268.7259,"MEAN_ANOMALY":91.3557,"EPHEMERIS_TYPE":0,"CLASSIFICATION_TYPE":"U","NORAD_CAT_ID":55295,"ELEMENT_SET_NO":999,"REV_AT_EPOCH":15681,"BSTAR":0.00012666,"MEAN_MOTION_DOT":1.418e-5,"MEAN_MOTION_DDOT":0},{"OBJECT_NAME":"STARLINK-5285","OBJECT_ID":"2023-010AD","EPOCH":"2025-11-23T02:01:59.904768","MEAN_MOTION":14.98326428,"ECCENTRICITY":0.0002952,"INCLINATION":69.9983,"RA_OF_ASC_NODE":293.1245,"ARG_OF_PERICENTER":272.7157,"MEAN_ANOMALY":87.3664,"EPHEMERIS_TYPE":0,"CLASSIFICATION_TYPE":"U","NORAD_CAT_ID":55296,"ELEMENT_SET_NO":999,"REV_AT_EPOCH":15818,"BSTAR":5.961e-5,"MEAN_MOTION_DOT":6.18e-6,"MEAN_MOTION_DDOT":0},{"OBJECT_NAME":"STARLINK-5284","OBJECT_ID":"2023-010AE","EPOCH":"2025-11-23T02:14:01.368960","MEAN_MOTION":14.98325202,"ECCENTRICITY":0.0002939,"INCLINATION":69.9988,"RA_OF_ASC_NODE":293.1569,"ARG_OF_PERICENTER":266.9293,"MEAN_ANOMALY":93.1529,"EPHEMERIS_TYPE":0,"CLASSIFICATION_TYPE":"U","NORAD_CAT_ID":55297,"ELEMENT_SET_NO":999,"REV_AT_EPOCH":15730,"BSTAR":1.7382e-5,"MEAN_MOTION_DOT":1.14e-6,"MEAN_MOTION_DDOT":0}]
